SIRION PATHFINDER-2     
1 43759U 18099B   26139.10897072  .00002947  00000+0  16457-3 0  9997
2 43759  97.4267 188.8604 0009861  49.4231 310.7858 15.14255255408220
CORVUS BC4              
1 43767U 18099K   26139.07634684  .00003146  00000+0  18555-3 0  9993
2 43767  97.4085 182.9113 0010052 101.0674 259.1687 15.12232036408009
M2 PATHFINDER           
1 45727U 20037E   26139.05099703  .00001143  00000+0  86056-4 0  9998
2 45727  97.8160 329.9574 0009943 248.3513 111.6654 15.04536065321115
NETSAT-4                
1 46504U 20068U   26139.01322463  .00011870  00000+0  27291-3 0  9997
2 46504  97.8611 144.9344 0007410  74.1953 286.0110 15.42811885311278
NETSAT-3                
1 46505U 20068V   26138.80195486  .00012010  00000+0  28759-3 0  9994
2 46505  97.8661 142.9613 0007481  87.9231 272.2871 15.41580825311154
NETSAT-1                
1 46506U 20068W   26138.72119654  .00008004  00000+0  24689-3 0  9995
2 46506  97.8750 137.5460 0006961 107.5229 252.6773 15.33860375310785
NETSAT-2                
1 46507U 20068X   26138.24858022  .00013290  00000+0  28725-3 0  9990
2 46507  97.8625 143.9020 0006292  98.9669 261.2291 15.44629562311110
GREENCUBE (IO-117)      
1 53109U 22080E   26138.45774430 -.00000003  00000+0  00000+0 0  9996
2 53109  70.1432 308.5883 0008836 296.6746  63.3009  6.42583323 90159
SITRO-AIS 5 (KATYS)     
1 57176U 23091L   26139.14520065  .00007825  00000+0  28246-3 0  9991
2 57176  97.5071 202.7823 0011318 196.9616 163.1246 15.28719545159907
SITRO-AIS 6 (CHIRKIN)   
1 57192U 23091AC  26139.18956325  .00006221  00000+0  24940-3 0  9991
2 57192  97.5080 202.0967 0011447 200.1448 159.9340 15.25325253159860
SITRO-AIS 8 (ANOKHIN)   
1 57193U 23091AD  26139.14643473  .00009389  00000+0  31291-3 0  9990
2 57193  97.5067 204.2572 0010633 192.4320 167.6660 15.31269390160005
SITRO-AIS 7 (FARTUSHNIY)
1 57194U 23091AE  26139.18691277  .00005923  00000+0  23972-3 0  9997
2 57194  97.5077 201.9337 0011252 201.2239 158.8533 15.25027120159854
SITRO-AIS 10 (BURDAEV)  
1 57199U 23091AK  26139.16688355  .00011760  00000+0  32255-3 0  9993
2 57199  97.5090 209.0406 0007599 165.8264 194.3194 15.37410340160305
SITRO-AIS 9 (SHCHUKIN)  
1 57201U 23091AM  26139.18441381  .00011677  00000+0  32499-3 0  9992
2 57201  97.5088 208.8104 0007796 166.2092 193.9366 15.36954282160292
SITRO-AIS 12 (SMIRENNIY)
1 57204U 23091AQ  26139.18045825  .00011397  00000+0  31439-3 0  9990
2 57204  97.5100 209.2556 0007588 160.5732 199.5803 15.37239578160319
SITRO-AIS 11 (SHEFFER)  
1 57208U 23091AU  26139.13655028  .00013116  00000+0  35681-3 0  9995
2 57208  97.5099 209.4395 0007510 160.5757 199.5775 15.37635533160325
SITRO-AIS 25            
1 59066U 24039R   26139.16280328  .00003553  00000+0  27655-3 0  9998
2 59066  95.3918 215.1500 0147293  69.9780 291.7235 14.93299955120392
SITRO-AIS 26            
1 59067U 24039S   26139.16025921  .00003355  00000+0  26246-3 0  9990
2 59067  95.3918 215.0518 0147611  70.5268 291.1837 14.93101637120384
SITRO-AIS 27            
1 59068U 24039T   26139.20558235  .00003095  00000+0  24037-3 0  9992
2 59068  95.3919 215.3414 0146549  69.0536 292.6302 14.93511822120412
SITRO-AIS 28            
1 59071U 24039U   26139.18368796  .00002798  00000+0  21732-3 0  9992
2 59071  95.3921 215.3719 0146509  68.9640 292.7184 14.93548507120416
GRBBETA                 
1 60237U 24128C   26138.75008860  .00002817  00000+0  20089-3 0  9998
2 60237  61.9902 319.5268 0044653 128.5364 231.9745 15.06373372101833
OOV-CUBE (TUBSAT-30)    
1 60240U 24128F   26139.10950916  .00001579  00000+0  13100-3 0  9990
2 60240  61.9945 326.9543 0048263 127.4296 233.1202 15.02609435101745
ROBUSTA-3A (MEDITERRAN*)
1 60243U 24128J   26138.89331250  .00005615  00000+0  33797-3 0  9991
2 60243  61.9868 311.8010 0045402 122.4855 238.0641 15.11170902101992
LASARSAT                
1 62391U 24247Q   26139.14685896  .00019905  00000+0  42745-3 0  9996
2 62391  44.9757  65.1608 0005504 164.4067 195.6993 15.44419805 78825
CROCUBE                 
1 62394U 24247T   26139.17767380  .00023066  00000+0  46732-3 0  9994
2 62394  44.9735  62.7604 0005257 168.6607 191.4401 15.46046066 78852
FORESAIL-1 PRIME        
1 66778U 25276DS  26138.47590792  .00003455  00000+0  17124-3 0  9993
2 66778  97.4207 212.2958 0002332 169.5381 190.5902 15.18401791 25894
KNACKSAT-2              
1 67683U 98067XZ  26139.04864861  .00031100  00000+0  42253-3 0  9991
2 67683  51.6308  80.7389 0012200  92.2883 267.9506 15.57245204 15733
